NORAD_CAT_ID,OBJECT_NAME,OBJECT_TYPE,EPOCH,MEAN_MOTION,ECCENTRICITY,INCLINATION,RA_OF_ASC_NODE,ARG_OF_PERICENTER,MEAN_ANOMALY,BSTAR,MEAN_MOTION_DOT,MEAN_MOTION_DDOT,TLE_LINE0,TLE_LINE1,TLE_LINE2,SEMIMAJOR_AXIS,PERIOD,APOGEE,PERIGEE,DECAYED
55281.0,STARLINK-5298,PAYLOAD,2023-09-24 18:01:45,14.9832948,0.0002933,70.0006,145.942,266.8054,93.277,-6.2244e-05,-8.36e-06,0.0,0 STARLINK-5298,1 55281U 23010N   23267.75122540 -.00000836  00000-0 -62244-4 0  9994,2 55281  70.0006 145.9420 0002933 266.8054  93.2770 14.98329480 38129,6950.194,96.107,574.098,570.021,0.0
55281.0,STARLINK-5298,PAYLOAD,2023-09-24 19:37:53,14.98329178,0.0002944,70.0005,145.7737,266.8291,93.2531,-6.4168e-05,-8.59e-06,0.0,0 STARLINK-5298,1 55281U 23010N   23267.81798562 -.00000859  00000-0 -64168-4 0  9996,2 55281  70.0005 145.7737 0002944 266.8291  93.2531 14.98329178 38435,6950.195,96.107,574.107,570.014,0.0
55281.0,STARLINK-5298,PAYLOAD,2023-09-25 02:02:25,14.98332787,0.0002895,70.0006,145.1006,266.7564,93.3264,-2.3248e-05,-3.7e-06,0.0,0 STARLINK-5298,1 55281U 23010N   23268.08502210 -.00000370  00000-0 -23248-4 0  9991,2 55281  70.0006 145.1006 0002895 266.7564  93.3264 14.98332787 38474,6950.184,96.107,574.061,570.037,0.0
55281.0,STARLINK-5298,PAYLOAD,2023-09-25 19:39:54,14.9833615,0.0002946,70.0003,143.2494,265.998,94.0842,6.6289e-05,6.98e-06,0.0,0 STARLINK-5298,1 55281U 23010N   23268.81937556  .00000698  00000-0  66289-4 0  9990,2 55281  70.0003 143.2494 0002946 265.9980  94.0842 14.98336150 38288,6950.174,96.107,574.086,569.991,0.0
55281.0,STARLINK-5298,PAYLOAD,2023-09-25 21:16:02,14.98336227,0.0002942,70.0002,143.0811,266.0021,94.0801,6.6804e-05,7.04e-06,0.0,0 STARLINK-5298,1 55281U 23010N   23268.88613525  .00000704  00000-0  66804-4 0  9995,2 55281  70.0002 143.0811 0002942 266.0021  94.0801 14.98336227 38596,6950.174,96.107,574.083,569.994,0.0
55281.0,STARLINK-5298,PAYLOAD,2023-09-26 02:04:25,14.98341005,0.0002897,70.0002,142.5763,265.6042,94.4786,0.00011637,1.296e-05,0.0,0 STARLINK-5298,1 55281U 23010N   23269.08640971  .00001296  00000-0  11637-3 0  9993,2 55281  70.0002 142.5763 0002897 265.6042  94.4786 14.98341005 38623,6950.159,96.106,574.037,570.01,0.0
55281.0,STARLINK-5298,PAYLOAD,2023-09-26 18:05:47,14.98322342,0.0002566,70.0019,140.898,237.6351,122.456,-2.3065e-05,-3.68e-06,0.0,0 STARLINK-5298,1 55281U 23010N   23269.75402581 -.00000368  00000-0 -23065-4 0  9990,2 55281  70.0019 140.8980 0002566 237.6351 122.4560 14.98322342 38421,6950.217,96.107,573.865,570.298,0.0
55281.0,STARLINK-5298,PAYLOAD,2023-09-26 21:18:04,14.98321198,0.0002786,70.0005,140.5588,253.3413,106.7441,-4.7692e-05,-6.62e-06,0.0,0 STARLINK-5298,1 55281U 23010N   23269.88754740 -.00000662  00000-0 -47692-4 0  9990,2 55281  70.0005 140.5588 0002786 253.3413 106.7441 14.98321198 38741,6950.22,96.108,574.021,570.149,0.0
55281.0,STARLINK-5298,PAYLOAD,2023-09-27 08:31:00,14.98326415,0.0002881,69.9992,139.3773,268.7799,91.303,-9.0253e-05,-1.17e-05,0.0,0 STARLINK-5298,1 55281U 23010N   23270.35486762 -.00001170  00000-0 -90253-4 0  9996,2 55281  69.9992 139.3773 0002881 268.7799  91.3030 14.98326415 38816,6950.204,96.107,574.071,570.067,0.0
55281.0,STARLINK-5298,PAYLOAD,2023-09-27 19:43:57,14.9832595,0.0002958,69.9991,138.1989,269.3669,90.7151,-0.00012633,-1.6e-05,0.0,0 STARLINK-5298,1 55281U 23010N   23270.82218993 -.00001600  00000-0 -12633-3 0  9990,2 55281  69.9991 138.1989 0002958 269.3669  90.7151 14.98325950 38583,6950.205,96.107,574.126,570.015,0.0
55281.0,STARLINK-5298,PAYLOAD,2023-09-28 00:32:21,14.983353,0.0002706,69.9997,137.6951,255.313,104.7729,-0.0002135,-2.64e-05,0.0,0 STARLINK-5298,1 55281U 23010N   23271.02246604 -.00002640  00000-0 -21350-3 0  9994,2 55281  69.9997 137.6951 0002706 255.3130 104.7729 14.98335300 38612,6950.177,96.107,573.922,570.161,0.0
55281.0,STARLINK-5298,PAYLOAD,2023-09-28 14:57:33,14.98327307,0.0002905,69.9995,136.1797,270.2767,89.8059,0.00016158,1.835e-05,0.0,0 STARLINK-5298,1 55281U 23010N   23271.62330194  .00001835  00000-0  16158-3 0  9991,2 55281  69.9995 136.1797 0002905 270.2767  89.8059 14.98327307 39006,6950.201,96.107,574.085,570.047,0.0
55281.0,STARLINK-5298,PAYLOAD,2023-09-28 21:22:05,14.98328934,0.0002921,69.9998,135.5065,270.8319,89.2505,0.0001868,2.136e-05,0.0,0 STARLINK-5298,1 55281U 23010N   23271.89034046  .00002136  00000-0  18680-3 0  9994,2 55281  69.9998 135.5065 0002921 270.8319  89.2505 14.98328934 39048,6950.196,96.107,574.091,570.031,0.0
55281.0,STARLINK-5298,PAYLOAD,2023-09-29 00:34:21,14.98331425,0.0002946,69.9999,135.1701,271.4903,88.5919,0.00021064,2.421e-05,0.0,0 STARLINK-5298,1 55281U 23010N   23272.02385809  .00002421  00000-0  21064-3 0  9993,2 55281  69.9999 135.1701 0002946 271.4903  88.5919 14.98331425 38763,6950.188,96.107,574.101,570.006,0.0
55281.0,STARLINK-5298,PAYLOAD,2023-09-29 18:11:50,14.98329053,0.0002889,70.0003,133.3201,267.5608,92.522,6.6242e-05,6.97e-06,0.0,0 STARLINK-5298,1 55281U 23010N   23272.75822276  .00000697  00000-0  66242-4 0  9998,2 55281  70.0003 133.3201 0002889 267.5608  92.5220 14.98329053 38877,6950.196,96.107,574.069,570.053,0.0
55281.0,STARLINK-5298,PAYLOAD,2023-09-30 00:36:22,14.98331763,0.000281,70.0003,132.6463,259.2636,100.8207,6.8164e-05,7.2e-06,0.0,0 STARLINK-5298,1 55281U 23010N   23273.02526018  .00000720  00000-0  68164-4 0  9996,2 55281  70.0003 132.6463 0002810 259.2636 100.8207 14.98331763 39210,6950.187,96.107,574.005,570.099,0.0
55281.0,STARLINK-5298,PAYLOAD,2023-09-30 18:13:51,14.98330907,0.0002792,70.0,130.7922,270.2536,89.8303,-0.00010428,-1.337e-05,0.0,0 STARLINK-5298,1 55281U 23010N   23273.75962495 -.00001337  00000-0 -10428-3 0  9995,2 55281  70.0000 130.7922 0002792 270.2536  89.8303 14.98330907 39028,6950.19,96.107,573.996,570.115,0.0
55281.0,STARLINK-5298,PAYLOAD,2023-10-01 00:38:23,14.98331192,0.0002951,69.9998,130.1196,271.9075,88.1746,-9.1874e-05,-1.189e-05,0.0,0 STARLINK-5298,1 55281U 23010N   23274.02666419 -.00001189  00000-0 -91874-4 0  9993,2 55281  69.9998 130.1196 0002951 271.9075  88.1746 14.98331192 39368,6950.189,96.107,574.105,570.003,0.0
55281.0,STARLINK-5298,PAYLOAD,2023-10-01 18:15:51,14.98324069,0.0002862,69.9995,128.2682,269.8312,90.2519,0.00021476,2.47e-05,0.0,0 STARLINK-5298,1 55281U 23010N   23274.76101750  .00002470  00000-0  21476-3 0  9998,2 55281  69.9995 128.2682 0002862 269.8312  90.2519 14.98324069 39170,6950.211,96.107,574.065,570.087,0.0
55281.0,STARLINK-5298,PAYLOAD,2023-10-01 21:28:07,14.98338465,0.0002946,69.9995,127.9316,271.9067,88.1754,5.0911e-05,5.15e-06,0.0,0 STARLINK-5298,1 55281U 23010N   23274.89453331  .00000515  00000-0  50911-4 0  9992,2 55281  69.9995 127.9316 0002946 271.9067  88.1754 14.98338465 39491,6950.167,96.106,574.079,569.984,0.0
55281.0,STARLINK-5298,PAYLOAD,2023-10-02 00:40:23,14.98339342,0.0002928,69.9994,127.5948,272.0385,88.0439,6.1195e-05,6.37e-06,0.0,0 STARLINK-5298,1 55281U 23010N   23275.02805178  .00000637  00000-0  61195-4 0  9999,2 55281  69.9994 127.5948 0002928 272.0385  88.0439 14.98339342 39216,6950.164,96.106,574.064,569.994,0.0
55281.0,STARLINK-5298,PAYLOAD,2023-10-02 07:04:56,14.98334783,0.0003013,69.9993,126.9208,274.7009,85.3806,-2.5537e-05,-3.98e-06,0.0,0 STARLINK-5298,1 55281U 23010N   23275.29509575 -.00000398  00000-0 -25537-4 0  9996,2 55281  69.9993 126.9208 0003013 274.7009  85.3806 14.98334783 39251,6950.178,96.107,574.137,569.949,0.0
55281.0,STARLINK-5298,PAYLOAD,2023-10-02 19:54:01,14.98325404,0.0002829,69.9992,125.5751,268.4137,91.6698,1.3623e-05,7e-07,0.0,0 STARLINK-5298,1 55281U 23010N   23275.82918107  .00000070  00000-0  13623-4 0  9998,2 55281  69.9992 125.5751 0002829 268.4137  91.6698 14.98325404 39332,6950.207,96.107,574.038,570.106,0.0
55281.0,STARLINK-5298,PAYLOAD,2023-10-03 07:06:57,14.9832622,0.0002859,69.9991,124.3965,270.4235,89.6596,-2.6353e-05,-4.07e-06,0.0,0 STARLINK-5298,1 55281U 23010N   23276.29650252 -.00000407  00000-0 -26353-4 0  9994,2 55281  69.9991 124.3965 0002859 270.4235  89.6596 14.98326220 39702,6950.205,96.107,574.057,570.083,0.0
55281.0,STARLINK-5298,PAYLOAD,2023-10-03 19:56:02,14.98332086,0.0002871,69.999,123.0502,268.1088,91.9742,-7.0273e-05,-9.31e-06,0.0,0 STARLINK-5298,1 55281U 23010N   23276.83057969 -.00000931  00000-0 -70273-4 0  9992,2 55281  69.9990 123.0502 0002871 268.1088  91.9742 14.98332086 39782,6950.186,96.107,574.047,570.056,0.0
55281.0,STARLINK-5298,PAYLOAD,2023-10-04 07:08:58,14.98333968,0.0002962,69.9986,121.8716,270.063,90.019,-5.2587e-05,-7.2e-06,0.0,0 STARLINK-5298,1 55281U 23010N   23277.29789712 -.00000720  00000-0 -52587-4 0  9995,2 55281  69.9986 121.8716 0002962 270.0630  90.0190 14.98333968 39851,6950.181,96.107,574.104,569.987,0.0
55281.0,STARLINK-5298,PAYLOAD,2023-10-04 21:34:10,14.98332435,0.0002943,69.9984,120.3563,267.9216,92.1606,8.5322e-05,9.25e-06,0.0,0 STARLINK-5298,1 55281U 23010N   23277.89873389  .00000925  00000-0  85322-4 0  9993,2 55281  69.9984 120.3563 0002943 267.9216  92.1606 14.98332435 39940,6950.185,96.107,574.096,570.005,0.0
55281.0,STARLINK-5298,PAYLOAD,2023-10-04 23:10:18,14.98333488,0.0003012,69.9984,120.1879,269.7288,90.3526,6.9976e-05,7.42e-06,0.0,0 STARLINK-5298,1 55281U 23010N   23277.96549347  .00000742  00000-0  69976-4 0  9999,2 55281  69.9984 120.1879 0003012 269.7288  90.3526 14.98333488 39653,6950.182,96.107,574.14,569.954,0.0
55281.0,STARLINK-5298,PAYLOAD,2023-10-05 13:35:31,14.9832677,0.0002933,69.9984,118.6736,269.8638,90.2185,1.9258e-07,-9.1e-07,0.0,0 STARLINK-5298,1 55281U 23010N   23278.56633987 -.00000091  00000-0  19258-6 0  9998,2 55281  69.9984 118.6736 0002933 269.8638  90.2185 14.98326770 40049,6950.203,96.107,574.106,570.029,0.0
55281.0,STARLINK-5298,PAYLOAD,2023-10-05 20:00:04,14.98327505,0.0002935,69.9985,118.0001,267.9554,92.1269,-1.6111e-05,-2.85e-06,0.0,0 STARLINK-5298,1 55281U 23010N   23278.83338005 -.00000285  00000-0 -16111-4 0  9990,2 55281  69.9985 118.0001 0002935 267.9554  92.1269 14.98327505 39787,6950.201,96.107,574.105,570.026,0.0
